FENGYUN 1C DEB          
1 31512U 99025BXB 17346.56623007  .00000259  00000-0  93246-4 0  9991
2 31512  98.7909 105.5172 0163612 125.8843 291.9585 14.34944744555140
